DELTA 2 R/B(1)          
1 20453U 90008B   25365.02618281  .00072340  00000+0  10991-2 0  9997
2 20453  35.6062 262.3093 0107327 344.1232  15.6150 15.46942304915463
COSMOS 2058             
1 20465U 90010A   25365.37203848  .00007463  00000+0  44882-3 0  9991
2 20465  82.4715 114.7048 0009938 205.0039 155.0711 15.10674318931929
SL-14 R/B               
1 20466U 90010B   25365.36187435  .00000889  00000+0  10487-3 0  9993
2 20466  82.5029 331.5568 0020252 160.7478 199.4507 14.83492304918350
SL-14 R/B               
1 20511U 90018B   25365.31390514  .00000893  00000+0  10934-3 0  9993
2 20511  82.5221 287.0056 0015453 321.5280  38.4831 14.82069371912457
HST                     
1 20580U 90037B   25365.46963686  .00010435  00000+0  35945-3 0  9994
2 20580  28.4654 144.9753 0002588  81.6509 278.4380 15.28310197762869
SL-16 R/B               
1 20625U 90046B   25365.47942197  .00000205  00000+0  13060-3 0  9997
2 20625  70.9993  81.1675 0012578  41.5154 318.6922 14.14998679838744
COSMOS 2084             
1 20663U 90055A   25365.30409463  .00005075  00000+0  36532-3 0  9994
2 20663  62.7892 208.7329 0028670 177.4128 182.7126 15.05140879926023
SL-6 R/B(2)             
1 20666U 90055D   25365.46121885  .00004573  00000+0  35012-3 0  9997
2 20666  62.7835 125.7983 0014963 321.0193  38.9826 15.03181029927936
SL-8 R/B                
1 20775U 90078B   25365.37988911  .00019304  00000+0  59345-3 0  9997
2 20775  82.9055 312.6169 0369487 243.1157 113.1858 14.86605615799149
SL-8 R/B                
1 21088U 91006B   25365.36861641  .00000062  00000+0  47119-4 0  9994
2 21088  82.9409 220.8560 0021516 224.5892 309.5106 13.77492804754660
OKEAN-3                 
1 21397U 91039A   25365.50829010  .00005350  00000+0  38212-3 0  9991
2 21397  82.5160  42.8782 0013799 195.6879 164.3922 15.04246120854785
COSMOS 2151             
1 21422U 91042A   25365.50516089  .00003721  00000+0  29868-3 0  9990
2 21422  82.4967 149.4188 0011296 291.9237  68.0786 14.99775732852976
