CCSDS_OMM_VERS = 2.0
CREATION_DATE  = 
ORIGINATOR     = 

OBJECT_NAME    = DELTA 2 R/B(1)
OBJECT_ID      = 1990-008B
CENTER_NAME    = EARTH
REF_FRAME      = TEME
TIME_SYSTEM    = UTC
MEAN_ELEMENT_THEORY = SGP/SGP4

EPOCH          = 2025-12-31T00:37:42.194784
MEAN_MOTION    = 15.46942304
ECCENTRICITY   = .01073276
INCLINATION    = 35.6062
RA_OF_ASC_NODE = 262.3093
ARG_OF_PERICENTER = 344.1232
MEAN_ANOMALY   = 15.6150

EPHEMERIS_TYPE = 0
CLASSIFICATION_TYPE = U
NORAD_CAT_ID   = 20453
ELEMENT_SET_NO = 999
REV_AT_EPOCH   = 91546
BSTAR          = .10991142E-2
MEAN_MOTION_DOT = .7234E-3
MEAN_MOTION_DDOT = 0

CCSDS_OMM_VERS = 2.0
CREATION_DATE  = 
ORIGINATOR     = 

OBJECT_NAME    = COSMOS 2058
OBJECT_ID      = 1990-010A
CENTER_NAME    = EARTH
REF_FRAME      = TEME
TIME_SYSTEM    = UTC
MEAN_ELEMENT_THEORY = SGP/SGP4

EPOCH          = 2025-12-31T08:55:44.124672
MEAN_MOTION    = 15.10674318
ECCENTRICITY   = .0009938
INCLINATION    = 82.4715
RA_OF_ASC_NODE = 114.7048
ARG_OF_PERICENTER = 205.0039
MEAN_ANOMALY   = 155.0711

EPHEMERIS_TYPE = 0
CLASSIFICATION_TYPE = U
NORAD_CAT_ID   = 20465
ELEMENT_SET_NO = 999
REV_AT_EPOCH   = 93192
BSTAR          = .44882E-3
MEAN_MOTION_DOT = .7463E-4
MEAN_MOTION_DDOT = 0

CCSDS_OMM_VERS = 2.0
CREATION_DATE  = 
ORIGINATOR     = 

OBJECT_NAME    = SL-14 R/B
OBJECT_ID      = 1990-010B
CENTER_NAME    = EARTH
REF_FRAME      = TEME
TIME_SYSTEM    = UTC
MEAN_ELEMENT_THEORY = SGP/SGP4

EPOCH          = 2025-12-31T08:41:05.943840
MEAN_MOTION    = 14.83492304
ECCENTRICITY   = .0020252
INCLINATION    = 82.5029
RA_OF_ASC_NODE = 331.5568
ARG_OF_PERICENTER = 160.7478
MEAN_ANOMALY   = 199.4507

EPHEMERIS_TYPE = 0
CLASSIFICATION_TYPE = U
NORAD_CAT_ID   = 20466
ELEMENT_SET_NO = 999
REV_AT_EPOCH   = 91835
BSTAR          = .10487E-3
MEAN_MOTION_DOT = .889E-5
MEAN_MOTION_DDOT = 0

CCSDS_OMM_VERS = 2.0
CREATION_DATE  = 
ORIGINATOR     = 

OBJECT_NAME    = SL-14 R/B
OBJECT_ID      = 1990-018B
CENTER_NAME    = EARTH
REF_FRAME      = TEME
TIME_SYSTEM    = UTC
MEAN_ELEMENT_THEORY = SGP/SGP4

EPOCH          = 2025-12-31T07:32:01.404096
MEAN_MOTION    = 14.82069371
ECCENTRICITY   = .0015453
INCLINATION    = 82.5221
RA_OF_ASC_NODE = 287.0056
ARG_OF_PERICENTER = 321.5280
MEAN_ANOMALY   = 38.4831

EPHEMERIS_TYPE = 0
CLASSIFICATION_TYPE = U
NORAD_CAT_ID   = 20511
ELEMENT_SET_NO = 999
REV_AT_EPOCH   = 91245
BSTAR          = .10934E-3
MEAN_MOTION_DOT = .893E-5
MEAN_MOTION_DDOT = 0

CCSDS_OMM_VERS = 2.0
CREATION_DATE  = 
ORIGINATOR     = 

OBJECT_NAME    = HST
OBJECT_ID      = 1990-037B
CENTER_NAME    = EARTH
REF_FRAME      = TEME
TIME_SYSTEM    = UTC
MEAN_ELEMENT_THEORY = SGP/SGP4

EPOCH          = 2025-12-31T11:16:16.624704
MEAN_MOTION    = 15.28310197
ECCENTRICITY   = .0002588
INCLINATION    = 28.4654
RA_OF_ASC_NODE = 144.9753
ARG_OF_PERICENTER = 81.6509
MEAN_ANOMALY   = 278.4380

EPHEMERIS_TYPE = 0
CLASSIFICATION_TYPE = U
NORAD_CAT_ID   = 20580
ELEMENT_SET_NO = 999
REV_AT_EPOCH   = 76286
BSTAR          = .35945E-3
MEAN_MOTION_DOT = .10435E-3
MEAN_MOTION_DDOT = 0

CCSDS_OMM_VERS = 2.0
CREATION_DATE  = 
ORIGINATOR     = 

OBJECT_NAME    = SL-16 R/B
OBJECT_ID      = 1990-046B
CENTER_NAME    = EARTH
REF_FRAME      = TEME
TIME_SYSTEM    = UTC
MEAN_ELEMENT_THEORY = SGP/SGP4

EPOCH          = 2025-12-31T11:30:22.058208
MEAN_MOTION    = 14.14998679
ECCENTRICITY   = .0012578
INCLINATION    = 70.9993
RA_OF_ASC_NODE = 81.1675
ARG_OF_PERICENTER = 41.5154
MEAN_ANOMALY   = 318.6922

EPHEMERIS_TYPE = 0
CLASSIFICATION_TYPE = U
NORAD_CAT_ID   = 20625
ELEMENT_SET_NO = 999
REV_AT_EPOCH   = 83874
BSTAR          = .1306E-3
MEAN_MOTION_DOT = .205E-5
MEAN_MOTION_DDOT = 0

CCSDS_OMM_VERS = 2.0
CREATION_DATE  = 
ORIGINATOR     = 

OBJECT_NAME    = COSMOS 2084
OBJECT_ID      = 1990-055A
CENTER_NAME    = EARTH
REF_FRAME      = TEME
TIME_SYSTEM    = UTC
MEAN_ELEMENT_THEORY = SGP/SGP4

EPOCH          = 2025-12-31T07:17:53.776032
MEAN_MOTION    = 15.05140879
ECCENTRICITY   = .002867
INCLINATION    = 62.7892
RA_OF_ASC_NODE = 208.7329
ARG_OF_PERICENTER = 177.4128
MEAN_ANOMALY   = 182.7126

EPHEMERIS_TYPE = 0
CLASSIFICATION_TYPE = U
NORAD_CAT_ID   = 20663
ELEMENT_SET_NO = 999
REV_AT_EPOCH   = 92602
BSTAR          = .36532E-3
MEAN_MOTION_DOT = .5075E-4
MEAN_MOTION_DDOT = 0

CCSDS_OMM_VERS = 2.0
CREATION_DATE  = 
ORIGINATOR     = 

OBJECT_NAME    = SL-6 R/B(2)
OBJECT_ID      = 1990-055D
CENTER_NAME    = EARTH
REF_FRAME      = TEME
TIME_SYSTEM    = UTC
MEAN_ELEMENT_THEORY = SGP/SGP4

EPOCH          = 2025-12-31T11:04:09.308640
MEAN_MOTION    = 15.03181029
ECCENTRICITY   = .0014963
INCLINATION    = 62.7835
RA_OF_ASC_NODE = 125.7983
ARG_OF_PERICENTER = 321.0193
MEAN_ANOMALY   = 38.9826

EPHEMERIS_TYPE = 0
CLASSIFICATION_TYPE = U
NORAD_CAT_ID   = 20666
ELEMENT_SET_NO = 999
REV_AT_EPOCH   = 92793
BSTAR          = .35012E-3
MEAN_MOTION_DOT = .4573E-4
MEAN_MOTION_DDOT = 0

CCSDS_OMM_VERS = 2.0
CREATION_DATE  = 
ORIGINATOR     = 

OBJECT_NAME    = SL-8 R/B
OBJECT_ID      = 1990-078B
CENTER_NAME    = EARTH
REF_FRAME      = TEME
TIME_SYSTEM    = UTC
MEAN_ELEMENT_THEORY = SGP/SGP4

EPOCH          = 2025-12-31T09:07:02.419104
MEAN_MOTION    = 14.86605615
ECCENTRICITY   = .0369487
INCLINATION    = 82.9055
RA_OF_ASC_NODE = 312.6169
ARG_OF_PERICENTER = 243.1157
MEAN_ANOMALY   = 113.1858

EPHEMERIS_TYPE = 0
CLASSIFICATION_TYPE = U
NORAD_CAT_ID   = 20775
ELEMENT_SET_NO = 999
REV_AT_EPOCH   = 79914
BSTAR          = .59345E-3
MEAN_MOTION_DOT = .19304E-3
MEAN_MOTION_DDOT = 0

CCSDS_OMM_VERS = 2.0
CREATION_DATE  = 
ORIGINATOR     = 

OBJECT_NAME    = SL-8 R/B
OBJECT_ID      = 1991-006B
CENTER_NAME    = EARTH
REF_FRAME      = TEME
TIME_SYSTEM    = UTC
MEAN_ELEMENT_THEORY = SGP/SGP4

EPOCH          = 2025-12-31T08:50:48.457824
MEAN_MOTION    = 13.77492804
ECCENTRICITY   = .0021516
INCLINATION    = 82.9409
RA_OF_ASC_NODE = 220.8560
ARG_OF_PERICENTER = 224.5892
MEAN_ANOMALY   = 309.5106

EPHEMERIS_TYPE = 0
CLASSIFICATION_TYPE = U
NORAD_CAT_ID   = 21088
ELEMENT_SET_NO = 999
REV_AT_EPOCH   = 75466
BSTAR          = .47119E-4
MEAN_MOTION_DOT = .62E-6
MEAN_MOTION_DDOT = 0

CCSDS_OMM_VERS = 2.0
CREATION_DATE  = 
ORIGINATOR     = 

OBJECT_NAME    = OKEAN-3
OBJECT_ID      = 1991-039A
CENTER_NAME    = EARTH
REF_FRAME      = TEME
TIME_SYSTEM    = UTC
MEAN_ELEMENT_THEORY = SGP/SGP4

EPOCH          = 2025-12-31T12:11:56.264640
MEAN_MOTION    = 15.04246120
ECCENTRICITY   = .0013799
INCLINATION    = 82.5160
RA_OF_ASC_NODE = 42.8782
ARG_OF_PERICENTER = 195.6879
MEAN_ANOMALY   = 164.3922

EPHEMERIS_TYPE = 0
CLASSIFICATION_TYPE = U
NORAD_CAT_ID   = 21397
ELEMENT_SET_NO = 999
REV_AT_EPOCH   = 85478
BSTAR          = .38212E-3
MEAN_MOTION_DOT = .535E-4
MEAN_MOTION_DDOT = 0

CCSDS_OMM_VERS = 2.0
CREATION_DATE  = 
ORIGINATOR     = 

OBJECT_NAME    = COSMOS 2151
OBJECT_ID      = 1991-042A
CENTER_NAME    = EARTH
REF_FRAME      = TEME
TIME_SYSTEM    = UTC
MEAN_ELEMENT_THEORY = SGP/SGP4

EPOCH          = 2025-12-31T12:07:25.900896
MEAN_MOTION    = 14.99775732
ECCENTRICITY   = .0011296
INCLINATION    = 82.4967
RA_OF_ASC_NODE = 149.4188
ARG_OF_PERICENTER = 291.9237
MEAN_ANOMALY   = 68.0786

EPHEMERIS_TYPE = 0
CLASSIFICATION_TYPE = U
NORAD_CAT_ID   = 21422
ELEMENT_SET_NO = 999
REV_AT_EPOCH   = 85297
BSTAR          = .29868E-3
MEAN_MOTION_DOT = .3721E-4
MEAN_MOTION_DDOT = 0

